ONEWEB-0678             
1 56714U 23068E   24021.68658803  .00000029  00000+0  41748-4 0  9993
2 56714  87.8978  73.8285 0001998  94.7088 265.4271 13.15549102 33912
ONEWEB-0679             
1 56715U 23068F   24022.00001157  .00000016  00000+0  00000+0 0  9992
2 56715  87.4870  43.8603 0016029  92.1531 335.6975 13.65913638  5427
ONEWEB-0680             
1 56716U 23068G   24021.60951225  .00000091  00000+0  18795-3 0  9995
2 56716  87.9212  58.7005 0001498  67.4979 292.6313 13.21827649 35169
ONEWEB-0681             
1 56717U 23068H   24021.63473076  .00000027  00000+0  32846-4 0  9995
2 56717  87.9211  58.6838 0001804 136.4516 223.6761 13.21825733 35159
ONEWEB-0682             
1 56718U 23068J   24021.64936862  .00000099  00000+0  22769-3 0  9995
2 56718  87.8973  73.8882 0001336  92.2005 267.9279 13.15547444 34072
ONEWEB-0683             
1 56719U 23068K   24021.65885688  .00000144  00000+0  34772-3 0  9994
2 56719  87.8970  73.8540 0001504  93.6637 266.4666 13.15550739 34046
ONEWEB-0684             
1 56720U 23068L   24021.66600449  .00000170  00000+0  41643-3 0  9991
2 56720  87.8973  73.9278 0002295  88.3681 271.7712 13.15547245 33877
ONEWEB-0686             
1 56721U 23068M   24022.00001157  .00000016  00000+0  00000+0 0  9999
2 56721  87.5130  43.8569 0015268  93.1302 126.6023 13.66821011  5567
